NORAD_CAT_ID,OBJECT_NAME,OBJECT_TYPE,EPOCH,MEAN_MOTION,ECCENTRICITY,INCLINATION,RA_OF_ASC_NODE,ARG_OF_PERICENTER,MEAN_ANOMALY,BSTAR,MEAN_MOTION_DOT,MEAN_MOTION_DDOT,TLE_LINE0,TLE_LINE1,TLE_LINE2,SEMIMAJOR_AXIS,PERIOD,APOGEE,PERIGEE,DECAYED
53774.0,STARLINK-4719,PAYLOAD,2023-04-26 19:30:30,15.08844058,0.0002483,53.2103,308.1066,87.3321,272.7955,0.00097869,0.00015324,0.0,0 STARLINK-4719,1 53774U 22111B   23116.81285721  .00015324  00000-0  97869-3 0  9997,2 53774  53.2103 308.1066 0002483  87.3321 272.7955 15.08844058 35511,6917.868,95.437,541.451,538.015,0.0
53774.0,STARLINK-4719,PAYLOAD,2023-04-27 12:59:45,15.08857015,0.0001445,53.2145,304.8374,82.7052,277.4104,0.00078906,0.00012298,0.0,0 STARLINK-4719,1 53774U 22111B   23117.54149328  .00012298  00000-0  78906-3 0  9998,2 53774  53.2145 304.8374 0001445  82.7052 277.4104 15.08857015 35626,6917.828,95.436,540.693,538.694,0.0
53774.0,STARLINK-4719,PAYLOAD,2023-04-27 14:35:07,15.08857959,5.34e-05,53.2185,304.5417,40.5298,319.5733,0.00077661,0.000121,0.0,0 STARLINK-4719,1 53774U 22111B   23117.60773146  .00012100  00000-0  77661-3 0  9995,2 53774  53.2185 304.5417 0000534  40.5298 319.5733 15.08857959 34674,6917.825,95.436,540.06,539.321,0.0
53774.0,STARLINK-4719,PAYLOAD,2023-04-28 04:53:35,15.08853366,0.00011,53.214,301.8642,94.9992,265.1125,-0.00017038,-2.999e-05,0.0,0 STARLINK-4719,1 53774U 22111B   23118.20388278 -.00002999  00000-0 -17038-3 0  9999,2 53774  53.2140 301.8642 0001100  94.9992 265.1125 15.08853366 34768,6917.84,95.437,540.465,538.944,0.0
53774.0,STARLINK-4719,PAYLOAD,2023-04-29 04:44:22,15.08843025,0.0001078,53.2158,297.4015,96.2327,263.8788,7.5908e-05,9.21e-06,0.0,0 STARLINK-4719,1 53774U 22111B   23119.19748108  .00000921  00000-0  75908-4 0  9992,2 53774  53.2158 297.4015 0001078  96.2327 263.8788 15.08843025 34910,6917.871,95.437,540.482,538.99,0.0
53774.0,STARLINK-4719,PAYLOAD,2023-04-29 12:41:18,15.08837948,0.0001335,53.2162,295.9178,99.0089,261.1054,0.00010028,1.308e-05,0.0,0 STARLINK-4719,1 53774U 22111B   23119.52868475  .00001308  00000-0  10028-3 0  9990,2 53774  53.2162 295.9178 0001335  99.0089 261.1054 15.08837948 35926,6917.887,95.438,540.675,538.828,0.0
53774.0,STARLINK-4719,PAYLOAD,2023-04-29 20:38:14,15.08839973,0.0001352,53.2156,294.4296,98.4778,261.6367,0.00026796,3.979e-05,0.0,0 STARLINK-4719,1 53774U 22111B   23119.85988564  .00003979  00000-0  26796-3 0  9993,2 53774  53.2156 294.4296 0001352  98.4778 261.6367 15.08839973 35013,6917.88,95.438,540.681,538.81,0.0
53774.0,STARLINK-4719,PAYLOAD,2023-04-30 22:04:24,15.08848658,0.0001338,53.2158,289.6723,96.3313,263.7831,0.00029869,4.47e-05,0.0,0 STARLINK-4719,1 53774U 22111B   23120.91972386  .00004470  00000-0  29869-3 0  9998,2 53774  53.2158 289.6723 0001338  96.3313 263.7831 15.08848658 35178,6917.854,95.437,540.645,538.793,0.0
53774.0,STARLINK-4719,PAYLOAD,2023-05-01 10:47:29,15.0883829,0.0001321,53.216,287.2937,85.4182,274.6961,0.000133,1.829e-05,0.0,0 STARLINK-4719,1 53774U 22111B   23121.44964994  .00001829  00000-0  13300-3 0  9991,2 53774  53.2160 287.2937 0001321  85.4182 274.6961 15.08838290 36219,6917.886,95.438,540.664,538.837,0.0
53774.0,STARLINK-4719,PAYLOAD,2023-05-01 15:33:38,15.08839793,0.0001783,53.2165,286.3981,131.695,228.4195,0.00018438,2.648e-05,0.0,0 STARLINK-4719,1 53774U 22111B   23121.64836651  .00002648  00000-0  18438-3 0  9998,2 53774  53.2165 286.3981 0001783 131.6950 228.4195 15.08839793 35283,6917.881,95.438,540.979,538.513,0.0
53774.0,STARLINK-4719,PAYLOAD,2023-05-01 18:44:25,15.08840049,0.0001228,53.2157,285.8067,85.7384,274.3749,0.00012045,1.63e-05,0.0,0 STARLINK-4719,1 53774U 22111B   23121.78084911  .00001630  00000-0  12045-3 0  9995,2 53774  53.2157 285.8067 0001228  85.7384 274.3749 15.08840049 36267,6917.88,95.438,540.595,538.896,0.0
53774.0,STARLINK-4719,PAYLOAD,2023-05-01 21:55:11,15.08844713,0.000122,53.2156,285.2114,84.2594,275.8537,0.00021429,3.125e-05,0.0,0 STARLINK-4719,1 53774U 22111B   23121.91332747  .00003125  00000-0  21429-3 0  9990,2 53774  53.2156 285.2114 0001220  84.2594 275.8537 15.08844713 36287,6917.866,95.437,540.575,538.887,0.0
53774.0,STARLINK-4719,PAYLOAD,2023-05-02 16:59:48,15.08848302,0.0001124,53.2149,281.6415,97.0322,263.0798,0.00024119,3.554e-05,0.0,0 STARLINK-4719,1 53774U 22111B   23122.70820535  .00003554  00000-0  24119-3 0  9990,2 53774  53.2149 281.6415 0001124  97.0322 263.0798 15.08848302 36407,6917.855,95.437,540.498,538.942,0.0
53774.0,STARLINK-4719,PAYLOAD,2023-05-03 04:07:31,15.08839297,0.0001063,53.2158,279.5608,81.5303,278.5809,0.00010297,1.351e-05,0.0,0 STARLINK-4719,1 53774U 22111B   23123.17188762  .00001351  00000-0  10297-3 0  9996,2 53774  53.2158 279.5608 0001063  81.5303 278.5809 15.08839297 35514,6917.883,95.438,540.483,539.012,0.0
53774.0,STARLINK-4719,PAYLOAD,2023-05-03 13:39:49,15.08840094,0.0001159,53.2151,277.775,93.6346,266.4779,5.8011e-05,6.36e-06,0.0,0 STARLINK-4719,1 53774U 22111B   23123.56932767  .00000636  00000-0  58011-4 0  9993,2 53774  53.2151 277.7750 0001159  93.6346 266.4779 15.08840094 36534,6917.88,95.438,540.547,538.943,0.0
53774.0,STARLINK-4719,PAYLOAD,2023-05-03 18:25:59,15.08842363,0.0001171,53.2153,276.8825,98.2084,261.9041,0.00011046,1.471e-05,0.0,0 STARLINK-4719,1 53774U 22111B   23123.76804750  .00001471  00000-0  11046-3 0  9999,2 53774  53.2153 276.8825 0001171  98.2084 261.9041 15.08842363 36569,6917.873,95.437,540.548,538.928,0.0
53774.0,STARLINK-4719,PAYLOAD,2023-05-04 13:30:37,15.0884252,0.0001204,53.2152,273.3144,92.7908,267.3222,5.9483e-05,6.59e-06,0.0,0 STARLINK-4719,1 53774U 22111B   23124.56292911  .00000659  00000-0  59483-4 0  9993,2 53774  53.2152 273.3144 0001204  92.7908 267.3222 15.08842520 35728,6917.873,95.437,540.571,538.905,0.0
53774.0,STARLINK-4719,PAYLOAD,2023-05-04 19:52:09,15.08851273,0.000115,53.2159,272.1251,86.6738,273.4386,3.8403e-05,3.24e-06,0.0,0 STARLINK-4719,1 53774U 22111B   23124.82788488  .00000324  00000-0  38403-4 0  9999,2 53774  53.2159 272.1251 0001150  86.6738 273.4386 15.08851273 36729,6917.846,95.437,540.506,538.915,0.0
53774.0,STARLINK-4719,PAYLOAD,2023-05-05 16:32:10,15.08850229,0.0001134,53.215,268.2598,75.9994,284.1125,0.00033706,5.082e-05,0.0,0 STARLINK-4719,1 53774U 22111B   23125.68900797  .00005082  00000-0  33706-3 0  9999,2 53774  53.2150 268.2598 0001134  75.9994 284.1125 15.08850229 35894,6917.849,95.437,540.499,538.93,0.0
53774.0,STARLINK-4719,PAYLOAD,2023-05-06 02:04:29,15.08841229,0.0001015,53.2151,266.4757,77.1855,282.925,0.00010464,1.378e-05,0.0,0 STARLINK-4719,1 53774U 22111B   23126.08644977  .00001378  00000-0  10464-3 0  9999,2 53774  53.2151 266.4757 0001015  77.1855 282.9250 15.08841229 35952,6917.877,95.437,540.444,539.039,0.0
53774.0,STARLINK-4719,PAYLOAD,2023-05-06 13:12:11,15.0883982,0.0001044,53.2147,264.3946,90.3672,269.744,3.953e-05,3.41e-06,0.0,0 STARLINK-4719,1 53774U 22111B   23126.55013186  .00000341  00000-0  39530-4 0  9998,2 53774  53.2147 264.3946 0001044  90.3672 269.7440 15.08839820 36982,6917.881,95.438,540.468,539.024,0.0
53774.0,STARLINK-4719,PAYLOAD,2023-05-07 13:02:58,15.08839991,0.0001068,53.214,259.9357,106.0043,254.1067,2.9011e-05,1.74e-06,0.0,0 STARLINK-4719,1 53774U 22111B   23127.54373016  .00000174  00000-0  29011-4 0  9996,2 53774  53.2140 259.9357 0001068 106.0043 254.1067 15.08839991 36177,6917.88,95.438,540.484,539.007,0.0
53774.0,STARLINK-4719,PAYLOAD,2023-05-07 16:13:44,15.08845692,0.00011,53.2143,259.3407,100.7474,259.3642,6.8419e-05,8.01e-06,0.0,0 STARLINK-4719,1 53774U 22111B   23127.67620855  .00000801  00000-0  68419-4 0  9998,2 53774  53.2143 259.3407 0001100 100.7474 259.3642 15.08845692 37156,6917.863,95.437,540.489,538.967,0.0
53774.0,STARLINK-4719,PAYLOAD,2023-05-08 16:04:31,15.08848215,0.0001079,53.2155,254.8775,88.8874,271.2242,0.00016862,2.397e-05,0.0,0 STARLINK-4719,1 53774U 22111B   23128.66980777  .00002397  00000-0  16862-3 0  9996,2 53774  53.2155 254.8775 0001079  88.8874 271.2242 15.08848215 36345,6917.855,95.437,540.467,538.974,0.0
53774.0,STARLINK-4719,PAYLOAD,2023-05-09 12:44:32,15.08839545,0.0001253,53.2155,251.0124,89.2146,270.899,0.00011267,1.506e-05,0.0,0 STARLINK-4719,1 53774U 22111B   23129.53093627  .00001506  00000-0  11267-3 0  9997,2 53774  53.2155 251.0124 0001253  89.2146 270.8990 15.08839545 36478,6917.882,95.438,540.614,538.88,0.0
53774.0,STARLINK-4719,PAYLOAD,2023-05-09 14:19:55,15.08840121,0.0001126,53.2162,250.7099,83.4774,276.6347,6.4744e-05,7.43e-06,0.0,0 STARLINK-4719,1 53774U 22111B   23129.59717313  .00000743  00000-0  64744-4 0  9999,2 53774  53.2162 250.7099 0001126  83.4774 276.6347 15.08840121 37445,6917.88,95.438,540.524,538.966,0.0
53774.0,STARLINK-4719,PAYLOAD,2023-05-10 12:35:19,15.08841655,9.53e-05,53.2153,246.55,109.9622,250.1473,1.4227e-05,-6.1e-07,0.0,0 STARLINK-4719,1 53774U 22111B   23130.52453436 -.00000061  00000-0  14227-4 0  9992,2 53774  53.2153 246.5500 0000953 109.9622 250.1473 15.08841655 37583,6917.875,95.437,540.4,539.081,0.0
53774.0,STARLINK-4719,PAYLOAD,2023-05-10 14:10:42,15.0884363,9.55e-05,53.2149,246.2533,106.3786,253.7311,5.2066e-05,5.41e-06,0.0,0 STARLINK-4719,1 53774U 22111B   23130.59077358  .00000541  00000-0  52066-4 0  9999,2 53774  53.2149 246.2533 0000955 106.3786 253.7311 15.08843630 36635,6917.869,95.437,540.395,539.074,0.0
53774.0,STARLINK-4719,PAYLOAD,2023-05-11 10:50:44,15.08835074,9.14e-05,53.2144,242.3889,100.991,259.1185,0.00025298,3.74e-05,0.0,0 STARLINK-4719,1 53774U 22111B   23131.45189981  .00003740  00000-0  25298-3 0  9991,2 53774  53.2144 242.3889 0000914 100.9910 259.1185 15.08835074 37728,6917.895,95.438,540.393,539.128,0.0
53774.0,STARLINK-4719,PAYLOAD,2023-05-11 14:01:30,15.08843144,0.0001175,53.2138,241.7975,60.2545,299.8564,0.00018057,2.587e-05,0.0,0 STARLINK-4719,1 53774U 22111B   23131.58437799  .00002587  00000-0  18057-3 0  9991,2 53774  53.2138 241.7975 0001175  60.2545 299.8564 15.08843144 37743,6917.871,95.437,540.549,538.923,0.0
